{
  "type": "FeatureCollection",
  "features": [
    {
      "type": "Feature",
      "properties": {
        "norad_id": 33765,
        "name": "COSMOS 2251 DEB",
        "group": "cosmos-2251-debris",
        "lat": 73.36901032670674,
        "lon": -96.93858777739186,
        "alt_km": 567.5253051045829,
        "timestamp": "2025-12-20T14:38:02.361537+00:00",
        "meta_object_name": "COSMOS 2251 DEB",
        "meta_object_id": "1993-036N",
        "meta_epoch": "2025-12-20T05:26:58.956000",
        "meta_mean_motion": 15.10385167,
        "meta_eccentricity": 0.00649475,
        "meta_inclination": 74.008,
        "meta_ra_of_asc_node": 157.6191,
        "meta_arg_of_pericenter": 248.4522,
        "meta_mean_anomaly": 286.5812,
        "meta_ephemeris_type": 0,
        "meta_classification_type": "U",
        "meta_norad_cat_id": 33765,
        "meta_element_set_no": 999,
        "meta_rev_at_epoch": 89731,
        "meta_bstar": 0.0011298308,
        "meta_mean_motion_dot": 0.0001952,
        "meta_mean_motion_ddot": 0,
        "tle_line1": "1 33765U 93036N   25354.22707125  .00019520  00000+0  11298-2 0  9999",
        "tle_line2": "2 33765  74.0080 157.6191 0064947 248.4522 286.5812 15.10385167897319"
      },
      "geometry": {
        "type": "Point",
        "coordinates": [
          -96.93858777739186,
          73.36901032670674
        ]
      }
    },
    {
      "type": "Feature",
      "properties": {
        "norad_id": 33766,
        "name": "COSMOS 2251 DEB",
        "group": "cosmos-2251-debris",
        "lat": -22.3503381518849,
        "lon": 113.9962157512734,
        "alt_km": 735.6151414411315,
        "timestamp": "2025-12-20T14:38:02.361547+00:00",
        "meta_object_name": "COSMOS 2251 DEB",
        "meta_object_id": "1993-036P",
        "meta_epoch": "2025-12-19T18:39:45.275904",
        "meta_mean_motion": 14.34952819,
        "meta_eccentricity": 0.00645267,
        "meta_inclination": 74.1857,
        "meta_ra_of_asc_node": 122.1988,
        "meta_arg_of_pericenter": 323.6233,
        "meta_mean_anomaly": 36.0542,
        "meta_ephemeris_type": 0,
        "meta_classification_type": "U",
        "meta_norad_cat_id": 33766,
        "meta_element_set_no": 999,
        "meta_rev_at_epoch": 87846,
        "meta_bstar": 0.00035901119,
        "meta_mean_motion_dot": 1.02e-05,
        "meta_mean_motion_ddot": 0,
        "tle_line1": "1 33766U 93036P   25353.77760736  .00001020  00000+0  35901-3 0  9990",
        "tle_line2": "2 33766  74.1857 122.1988 0064526 323.6233  36.0542 14.34952819878464"
      },
      "geometry": {
        "type": "Point",
        "coordinates": [
          113.9962157512734,
          -22.3503381518849
        ]
      }
    },
    {
      "type": "Feature",
      "properties": {
        "norad_id": 33768,
        "name": "COSMOS 2251 DEB",
        "group": "cosmos-2251-debris",
        "lat": -68.46886982410903,
        "lon": 73.55419689482686,
        "alt_km": 1122.6392442835304,
        "timestamp": "2025-12-20T14:38:02.361558+00:00",
        "meta_object_name": "COSMOS 2251 DEB",
        "meta_object_id": "1993-036R",
        "meta_epoch": "2025-12-19T23:43:59.988000",
        "meta_mean_motion": 13.58460798,
        "meta_eccentricity": 0.0366672,
        "meta_inclination": 74.0669,
        "meta_ra_of_asc_node": 208.1685,
        "meta_arg_of_pericenter": 4.3314,
        "meta_mean_anomaly": 99.8501,
        "meta_ephemeris_type": 0,
        "meta_classification_type": "U",
        "meta_norad_cat_id": 33768,
        "meta_element_set_no": 999,
        "meta_rev_at_epoch": 83394,
        "meta_bstar": 0.00025605,
        "meta_mean_motion_dot": 2.68e-06,
        "meta_mean_motion_ddot": 0,
        "tle_line1": "1 33768U 93036R   25353.98888875  .00000268  00000+0  25605-3 0  9993",
        "tle_line2": "2 33768  74.0669 208.1685 0366672   4.3314  99.8501 13.58460798833946"
      },
      "geometry": {
        "type": "Point",
        "coordinates": [
          73.55419689482686,
          -68.46886982410903
        ]
      }
    },
    {
      "type": "Feature",
      "properties": {
        "norad_id": 33779,
        "name": "COSMOS 2251 DEB",
        "group": "cosmos-2251-debris",
        "lat": -61.88941603224353,
        "lon": 7.8431797313405,
        "alt_km": 659.7982766269797,
        "timestamp": "2025-12-20T14:38:02.361568+00:00",
        "meta_object_name": "COSMOS 2251 DEB",
        "meta_object_id": "1993-036U",
        "meta_epoch": "2025-12-19T19:52:05.280096",
        "meta_mean_motion": 14.70612577,
        "meta_eccentricity": 0.00164465,
        "meta_inclination": 74.0442,
        "meta_ra_of_asc_node": 156.9758,
        "meta_arg_of_pericenter": 189.895,
        "meta_mean_anomaly": 238.5503,
        "meta_ephemeris_type": 0,
        "meta_classification_type": "U",
        "meta_norad_cat_id": 33779,
        "meta_element_set_no": 999,
        "meta_rev_at_epoch": 88632,
        "meta_bstar": 0.0015347179,
        "meta_mean_motion_dot": 9.334e-05,
        "meta_mean_motion_ddot": 0,
        "tle_line1": "1 33779U 93036U   25353.82783889  .00009334  00000+0  15347-2 0  9991",
        "tle_line2": "2 33779  74.0442 156.9758 0016446 189.8950 238.5503 14.70612577886327"
      },
      "geometry": {
        "type": "Point",
        "coordinates": [
          7.8431797313405,
          -61.88941603224353
        ]
      }
    },
    {
      "type": "Feature",
      "properties": {
        "norad_id": 33782,
        "name": "COSMOS 2251 DEB",
        "group": "cosmos-2251-debris",
        "lat": -52.241283997678195,
        "lon": 104.68618791406169,
        "alt_km": 763.9176699697236,
        "timestamp": "2025-12-20T14:38:02.361578+00:00",
        "meta_object_name": "COSMOS 2251 DEB",
        "meta_object_id": "1993-036X",
        "meta_epoch": "2025-12-20T05:58:18.713280",
        "meta_mean_motion": 14.40465426,
        "meta_eccentricity": 0.00210177,
        "meta_inclination": 74.0331,
        "meta_ra_of_asc_node": 263.6592,
        "meta_arg_of_pericenter": 327.4695,
        "meta_mean_anomaly": 197.1536,
        "meta_ephemeris_type": 0,
        "meta_classification_type": "U",
        "meta_norad_cat_id": 33782,
        "meta_element_set_no": 999,
        "meta_rev_at_epoch": 88234,
        "meta_bstar": 0.00026979851,
        "meta_mean_motion_dot": 8.33e-06,
        "meta_mean_motion_ddot": 0,
        "tle_line1": "1 33782U 93036X   25354.24882770  .00000833  00000+0  26980-3 0  9992",
        "tle_line2": "2 33782  74.0331 263.6592 0021017 327.4695 197.1536 14.40465426882346"
      },
      "geometry": {
        "type": "Point",
        "coordinates": [
          104.68618791406169,
          -52.241283997678195
        ]
      }
    },
    {
      "type": "Feature",
      "properties": {
        "norad_id": 33785,
        "name": "COSMOS 2251 DEB",
        "group": "cosmos-2251-debris",
        "lat": -38.590503198765745,
        "lon": -122.14697092333677,
        "alt_km": 673.6336907479608,
        "timestamp": "2025-12-20T14:38:02.361589+00:00",
        "meta_object_name": "COSMOS 2251 DEB",
        "meta_object_id": "1993-036AA",
        "meta_epoch": "2025-12-20T05:44:54.089952",
        "meta_mean_motion": 14.70640305,
        "meta_eccentricity": 0.00229831,
        "meta_inclination": 73.8671,
        "meta_ra_of_asc_node": 45.2235,
        "meta_arg_of_pericenter": 343.1439,
        "meta_mean_anomaly": 78.1427,
        "meta_ephemeris_type": 0,
        "meta_classification_type": "U",
        "meta_norad_cat_id": 33785,
        "meta_element_set_no": 999,
        "meta_rev_at_epoch": 88617,
        "meta_bstar": 0.0012149323,
        "meta_mean_motion_dot": 7.398e-05,
        "meta_mean_motion_ddot": 0,
        "tle_line1": "1 33785U 93036AA  25354.23951493  .00007398  00000+0  12149-2 0  9997",
        "tle_line2": "2 33785  73.8671  45.2235 0022983 343.1439  78.1427 14.70640305886171"
      },
      "geometry": {
        "type": "Point",
        "coordinates": [
          -122.14697092333677,
          -38.590503198765745
        ]
      }
    },
    {
      "type": "Feature",
      "properties": {
        "norad_id": 33789,
        "name": "COSMOS 2251 DEB",
        "group": "cosmos-2251-debris",
        "lat": -61.469137048812954,
        "lon": -74.24640066418954,
        "alt_km": 843.7571249094553,
        "timestamp": "2025-12-20T14:38:02.361599+00:00",
        "meta_object_name": "COSMOS 2251 DEB",
        "meta_object_id": "1993-036AE",
        "meta_epoch": "2025-12-20T04:58:03.256896",
        "meta_mean_motion": 13.88811292,
        "meta_eccentricity": 0.0239851,
        "meta_inclination": 74.0645,
        "meta_ra_of_asc_node": 74.7332,
        "meta_arg_of_pericenter": 188.7205,
        "meta_mean_anomaly": 201.9959,
        "meta_ephemeris_type": 0,
        "meta_classification_type": "U",
        "meta_norad_cat_id": 33789,
        "meta_element_set_no": 999,
        "meta_rev_at_epoch": 85199,
        "meta_bstar": 0.00048673288,
        "meta_mean_motion_dot": 7.17e-06,
        "meta_mean_motion_ddot": 0,
        "tle_line1": "1 33789U 93036AE  25354.20698214  .00000717  00000+0  48673-3 0  9997",
        "tle_line2": "2 33789  74.0645  74.7332 0239851 188.7205 201.9959 13.88811292851993"
      },
      "geometry": {
        "type": "Point",
        "coordinates": [
          -74.24640066418954,
          -61.469137048812954
        ]
      }
    }
  ]
}